0 FENGYUN 1C DEB
1 30857U 99025AWT 13281.50675043  .00000722  00000-0  51620-3 0  8800
2 30857 098.9235 221.9616 0081851 253.2643 163.7675 13.98842765339605
0 FENGYUN 1C DEB
1 30857U 99025AWT 13282.50952993  .00000780  00000-0  55556-3 0  8810
2 30857 098.9235 222.9382 0081801 250.4127 173.6778 13.98848453339746
0 FENGYUN 1C DEB
1 30857U 99025AWT 13284.08307994  .00000752  00000-0  53664-3 0  8828
2 30857 098.9235 224.4707 0081678 245.9237 177.9798 13.98849995339962
0 FENGYUN 1C DEB
1 30857U 99025AWT 13285.08446998  .00000610  00000-0  44085-3 0  8838
2 30857 098.9235 225.4458 0081612 243.0634 180.9304 13.98851707340103
0 FENGYUN 1C DEB
1 30857U 99025AWT 13286.51279133  .00000620  00000-0  44761-3 0  8845
2 30857 098.9236 226.8367 0081556 239.0011 173.8796 13.98853761340309
0 FENGYUN 1C DEB
1 30857U 99025AWT 13287.80050968  .00000801  00000-0  56974-3 0  8852
2 30857 098.9237 228.0907 0081532 235.3348 178.7717 13.98856291340487
0 FENGYUN 1C DEB
1 30857U 99025AWT 13289.10173144  .00000806  00000-0  57282-3 0  8868
2 30857 098.9238 229.3578 0081489 231.6115 251.6995 13.98859416340669
0 FENGYUN 1C DEB
1 30857U 99025AWT 13290.10300309  .00000770  00000-0  54847-3 0  8870
2 30857 098.9238 230.3329 0081457 228.7425 254.0973 13.98860618340806
0 FENGYUN 1C DEB
1 30857U 99025AWT 13291.10454704  .00000762  00000-0  54324-3 0  8882
2 30857 098.9237 231.3083 0081462 225.8922 257.8540 13.98862329340946
0 FENGYUN 1C DEB
1 30857U 99025AWT 13292.10585360  .00000830  00000-0  58908-3 0  8895
2 30857 098.9236 232.2834 0081453 223.0251 260.4391 13.98863356341085
0 FENGYUN 1C DEB
1 30857U 99025AWT 13293.10700462  .00000923  00000-0  65192-3 0  8906
2 30857 098.9233 233.2583 0081451 220.1632 262.2413 13.98865162341221
0 FENGYUN 1C DEB
1 30857U 99025AWT 13294.10848230  .00000916  00000-0  64653-3 0  8917
2 30857 098.9232 234.2336 0081457 217.3030 265.6912 13.98867621341361
0 FENGYUN 1C DEB
1 30857U 99025AWT 13295.10995117  .00000975  00000-0  68669-3 0  8922
2 30857 098.9230 235.2089 0081442 214.4306 269.1170 13.98868991341505
